STARLINK-3240           
1 49728U 21115E   26068.56749009 -.00000676  00000+0 -24371-4 0  9993
2 49728  53.2181 159.6694 0001553  99.2198 260.8970 15.08836642235379
LEMUR-2-UNTITLED-SC     
1 63351U 25061A   26068.89211098  .00005783  00000+0  33296-3 0  9990
2 63351  97.5556  45.0864 0017373 245.6030 114.3388 15.12695529 52577
